CCSDS_OMM_VERS = 2.0
CREATION_DATE  = 
ORIGINATOR     = 

OBJECT_NAME    = STARLINK-36947
OBJECT_ID      = 2026-040U
CENTER_NAME    = EARTH
REF_FRAME      = TEME
TIME_SYSTEM    = UTC
MEAN_ELEMENT_THEORY = SGP/SGP4

EPOCH          = 2026-03-08T04:00:01.999584
MEAN_MOTION    = 16.09669022
ECCENTRICITY   = .0000971
INCLINATION    = 97.2804
RA_OF_ASC_NODE = 15.1996
ARG_OF_PERICENTER = 112.3801
MEAN_ANOMALY   = 229.9718

EPHEMERIS_TYPE = 0
CLASSIFICATION_TYPE = U
NORAD_CAT_ID   = 68033
ELEMENT_SET_NO = 999
REV_AT_EPOCH   = 217
BSTAR          = -.9398E-3
MEAN_MOTION_DOT = -.851712E-2
MEAN_MOTION_DDOT = .27374E-3

CCSDS_OMM_VERS = 2.0
CREATION_DATE  = 
ORIGINATOR     = 

OBJECT_NAME    = STARLINK-36939
OBJECT_ID      = 2026-040V
CENTER_NAME    = EARTH
REF_FRAME      = TEME
TIME_SYSTEM    = UTC
MEAN_ELEMENT_THEORY = SGP/SGP4

EPOCH          = 2026-03-08T04:00:01.999584
MEAN_MOTION    = 16.10119197
ECCENTRICITY   = .0000966
INCLINATION    = 97.2804
RA_OF_ASC_NODE = 15.2026
ARG_OF_PERICENTER = 121.0566
MEAN_ANOMALY   = 228.2346

EPHEMERIS_TYPE = 0
CLASSIFICATION_TYPE = U
NORAD_CAT_ID   = 68034
ELEMENT_SET_NO = 999
REV_AT_EPOCH   = 217
BSTAR          = -.87814E-3
MEAN_MOTION_DOT = -.819594E-2
MEAN_MOTION_DDOT = .25644E-3

CCSDS_OMM_VERS = 2.0
CREATION_DATE  = 
ORIGINATOR     = 

OBJECT_NAME    = STARLINK-36943
OBJECT_ID      = 2026-040W
CENTER_NAME    = EARTH
REF_FRAME      = TEME
TIME_SYSTEM    = UTC
MEAN_ELEMENT_THEORY = SGP/SGP4

EPOCH          = 2026-03-08T04:00:01.999584
MEAN_MOTION    = 16.10799577
ECCENTRICITY   = .0000787
INCLINATION    = 97.2795
RA_OF_ASC_NODE = 15.2089
ARG_OF_PERICENTER = 117.1125
MEAN_ANOMALY   = 244.5655

EPHEMERIS_TYPE = 0
CLASSIFICATION_TYPE = U
NORAD_CAT_ID   = 68035
ELEMENT_SET_NO = 999
REV_AT_EPOCH   = 222
BSTAR          = -.80043E-3
MEAN_MOTION_DOT = -.781233E-2
MEAN_MOTION_DDOT = .23677E-3

CCSDS_OMM_VERS = 2.0
CREATION_DATE  = 
ORIGINATOR     = 

OBJECT_NAME    = STARLINK-36906
OBJECT_ID      = 2026-040X
CENTER_NAME    = EARTH
REF_FRAME      = TEME
TIME_SYSTEM    = UTC
MEAN_ELEMENT_THEORY = SGP/SGP4

EPOCH          = 2026-03-08T04:00:01.999584
MEAN_MOTION    = 16.10020891
ECCENTRICITY   = .0001065
INCLINATION    = 97.2802
RA_OF_ASC_NODE = 15.2019
ARG_OF_PERICENTER = 125.4591
MEAN_ANOMALY   = 222.2418

EPHEMERIS_TYPE = 0
CLASSIFICATION_TYPE = U
NORAD_CAT_ID   = 68036
ELEMENT_SET_NO = 999
REV_AT_EPOCH   = 217
BSTAR          = -.89292E-3
MEAN_MOTION_DOT = -.828042E-2
MEAN_MOTION_DDOT = .26102E-3

CCSDS_OMM_VERS = 2.0
CREATION_DATE  = 
ORIGINATOR     = 

OBJECT_NAME    = STARLINK-36388
OBJECT_ID      = 2026-040Y
CENTER_NAME    = EARTH
REF_FRAME      = TEME
TIME_SYSTEM    = UTC
MEAN_ELEMENT_THEORY = SGP/SGP4

EPOCH          = 2026-03-08T04:00:01.999584
MEAN_MOTION    = 16.10280852
ECCENTRICITY   = .0000934
INCLINATION    = 97.2801
RA_OF_ASC_NODE = 15.2037
ARG_OF_PERICENTER = 116.2439
MEAN_ANOMALY   = 235.2886

EPHEMERIS_TYPE = 0
CLASSIFICATION_TYPE = U
NORAD_CAT_ID   = 68037
ELEMENT_SET_NO = 999
REV_AT_EPOCH   = 212
BSTAR          = -.86192E-3
MEAN_MOTION_DOT = -.812996E-2
MEAN_MOTION_DDOT = .25317E-3

CCSDS_OMM_VERS = 2.0
CREATION_DATE  = 
ORIGINATOR     = 

OBJECT_NAME    = STARLINK-36895
OBJECT_ID      = 2026-040Z
CENTER_NAME    = EARTH
REF_FRAME      = TEME
TIME_SYSTEM    = UTC
MEAN_ELEMENT_THEORY = SGP/SGP4

EPOCH          = 2026-03-08T04:00:01.999584
MEAN_MOTION    = 16.09909525
ECCENTRICITY   = .0000974
INCLINATION    = 97.2798
RA_OF_ASC_NODE = 15.2012
ARG_OF_PERICENTER = 118.2741
MEAN_ANOMALY   = 227.6949

EPHEMERIS_TYPE = 0
CLASSIFICATION_TYPE = U
NORAD_CAT_ID   = 68038
ELEMENT_SET_NO = 999
REV_AT_EPOCH   = 217
BSTAR          = -.89458E-3
MEAN_MOTION_DOT = -.823641E-2
MEAN_MOTION_DDOT = .25807E-3

CCSDS_OMM_VERS = 2.0
CREATION_DATE  = 
ORIGINATOR     = 

OBJECT_NAME    = STARLINK-36373
OBJECT_ID      = 2026-040AA
CENTER_NAME    = EARTH
REF_FRAME      = TEME
TIME_SYSTEM    = UTC
MEAN_ELEMENT_THEORY = SGP/SGP4

EPOCH          = 2026-03-08T04:00:01.999584
MEAN_MOTION    = 16.09766487
ECCENTRICITY   = .0000997
INCLINATION    = 97.2800
RA_OF_ASC_NODE = 15.2005
ARG_OF_PERICENTER = 113.9071
MEAN_ANOMALY   = 230.0459

EPHEMERIS_TYPE = 0
CLASSIFICATION_TYPE = U
NORAD_CAT_ID   = 68039
ELEMENT_SET_NO = 999
REV_AT_EPOCH   = 212
BSTAR          = -.92103E-3
MEAN_MOTION_DOT = -.840057E-2
MEAN_MOTION_DDOT = .26718E-3

CCSDS_OMM_VERS = 2.0
CREATION_DATE  = 
ORIGINATOR     = 

OBJECT_NAME    = STARLINK-36711
OBJECT_ID      = 2026-041A
CENTER_NAME    = EARTH
REF_FRAME      = TEME
TIME_SYSTEM    = UTC
MEAN_ELEMENT_THEORY = SGP/SGP4

EPOCH          = 2026-03-08T04:00:01.999584
MEAN_MOTION    = 15.96151822
ECCENTRICITY   = .0000454
INCLINATION    = 53.1600
RA_OF_ASC_NODE = 70.0581
ARG_OF_PERICENTER = 74.8542
MEAN_ANOMALY   = 277.5035

EPHEMERIS_TYPE = 0
CLASSIFICATION_TYPE = U
NORAD_CAT_ID   = 68040
ELEMENT_SET_NO = 999
REV_AT_EPOCH   = 213
BSTAR          = -.3543E-2
MEAN_MOTION_DOT = -.1495725E-1
MEAN_MOTION_DDOT = .66354E-3

CCSDS_OMM_VERS = 2.0
CREATION_DATE  = 
ORIGINATOR     = 

OBJECT_NAME    = STARLINK-36825
OBJECT_ID      = 2026-041B
CENTER_NAME    = EARTH
REF_FRAME      = TEME
TIME_SYSTEM    = UTC
MEAN_ELEMENT_THEORY = SGP/SGP4

EPOCH          = 2026-03-08T04:00:01.999584
MEAN_MOTION    = 15.96423290
ECCENTRICITY   = .0000478
INCLINATION    = 53.1597
RA_OF_ASC_NODE = 70.0504
ARG_OF_PERICENTER = 77.5954
MEAN_ANOMALY   = 278.2376

EPHEMERIS_TYPE = 0
CLASSIFICATION_TYPE = U
NORAD_CAT_ID   = 68041
ELEMENT_SET_NO = 999
REV_AT_EPOCH   = 213
BSTAR          = -.35014E-2
MEAN_MOTION_DOT = -.15002E-1
MEAN_MOTION_DDOT = .66905E-3

CCSDS_OMM_VERS = 2.0
CREATION_DATE  = 
ORIGINATOR     = 

OBJECT_NAME    = STARLINK-36925
OBJECT_ID      = 2026-041C
CENTER_NAME    = EARTH
REF_FRAME      = TEME
TIME_SYSTEM    = UTC
MEAN_ELEMENT_THEORY = SGP/SGP4

EPOCH          = 2026-03-08T04:00:01.999584
MEAN_MOTION    = 15.96292312
ECCENTRICITY   = .0000403
INCLINATION    = 53.1597
RA_OF_ASC_NODE = 70.0542
ARG_OF_PERICENTER = 77.1381
MEAN_ANOMALY   = 277.0562

EPHEMERIS_TYPE = 0
CLASSIFICATION_TYPE = U
NORAD_CAT_ID   = 68042
ELEMENT_SET_NO = 999
REV_AT_EPOCH   = 213
BSTAR          = -.35201E-2
MEAN_MOTION_DOT = -.1497458E-1
MEAN_MOTION_DDOT = .66591E-3

CCSDS_OMM_VERS = 2.0
CREATION_DATE  = 
ORIGINATOR     = 

OBJECT_NAME    = STARLINK-36902
OBJECT_ID      = 2026-041D
CENTER_NAME    = EARTH
REF_FRAME      = TEME
TIME_SYSTEM    = UTC
MEAN_ELEMENT_THEORY = SGP/SGP4

EPOCH          = 2026-03-08T04:00:01.999584
MEAN_MOTION    = 15.96539399
ECCENTRICITY   = .0000426
INCLINATION    = 53.1600
RA_OF_ASC_NODE = 70.0475
ARG_OF_PERICENTER = 83.7626
MEAN_ANOMALY   = 273.5564

EPHEMERIS_TYPE = 0
CLASSIFICATION_TYPE = U
NORAD_CAT_ID   = 68043
ELEMENT_SET_NO = 999
REV_AT_EPOCH   = 213
BSTAR          = -.34624E-2
MEAN_MOTION_DOT = -.1493019E-1
MEAN_MOTION_DDOT = .66399E-3

CCSDS_OMM_VERS = 2.0
CREATION_DATE  = 
ORIGINATOR     = 

OBJECT_NAME    = STARLINK-36966
OBJECT_ID      = 2026-041E
CENTER_NAME    = EARTH
REF_FRAME      = TEME
TIME_SYSTEM    = UTC
MEAN_ELEMENT_THEORY = SGP/SGP4

EPOCH          = 2026-03-08T04:00:01.999584
MEAN_MOTION    = 15.96795788
ECCENTRICITY   = .0000538
INCLINATION    = 53.1599
RA_OF_ASC_NODE = 70.0402
ARG_OF_PERICENTER = 85.4024
MEAN_ANOMALY   = 275.4334

EPHEMERIS_TYPE = 0
CLASSIFICATION_TYPE = U
NORAD_CAT_ID   = 68044
ELEMENT_SET_NO = 999
REV_AT_EPOCH   = 213
BSTAR          = -.33855E-2
MEAN_MOTION_DOT = -.1480695E-1
MEAN_MOTION_DDOT = .65573E-3

