STARLINK-36947          
1 68033U 26040U   26067.16668981 -.00851712  27374-3 -93980-3 0  9992
2 68033  97.2804  15.1996 0000971 112.3801 229.9718 16.09669022  2175
STARLINK-36939          
1 68034U 26040V   26067.16668981 -.00819594  25644-3 -87814-3 0  9992
2 68034  97.2804  15.2026 0000966 121.0566 228.2346 16.10119197  2174
STARLINK-36943          
1 68035U 26040W   26067.16668981 -.00781233  23677-3 -80043-3 0  9992
2 68035  97.2795  15.2089 0000787 117.1125 244.5655 16.10799577  2227
STARLINK-36906          
1 68036U 26040X   26067.16668981 -.00828042  26102-3 -89292-3 0  9994
2 68036  97.2802  15.2019 0001065 125.4591 222.2418 16.10020891  2179
STARLINK-36388          
1 68037U 26040Y   26067.16668981 -.00812996  25317-3 -86192-3 0  9999
2 68037  97.2801  15.2037 0000934 116.2439 235.2886 16.10280852  2125
STARLINK-36895          
1 68038U 26040Z   26067.16668981 -.00823641  25807-3 -89458-3 0  9991
2 68038  97.2798  15.2012 0000974 118.2741 227.6949 16.09909525  2179
STARLINK-36373          
1 68039U 26040AA  26067.16668981 -.00840057  26718-3 -92103-3 0  9995
2 68039  97.2800  15.2005 0000997 113.9071 230.0459 16.09766487  2126
STARLINK-36711          
1 68040U 26041A   26067.16668981 -.01495725  66354-3 -35430-2 0  9996
2 68040  53.1600  70.0581 0000454  74.8542 277.5035 15.96151822  2134
STARLINK-36825          
1 68041U 26041B   26067.16668981 -.01500200  66905-3 -35014-2 0  9992
2 68041  53.1597  70.0504 0000478  77.5954 278.2376 15.96423290  2135
STARLINK-36925          
1 68042U 26041C   26067.16668981 -.01497458  66591-3 -35201-2 0  9992
2 68042  53.1597  70.0542 0000403  77.1381 277.0562 15.96292312  2139
STARLINK-36902          
1 68043U 26041D   26067.16668981 -.01493019  66399-3 -34624-2 0  9996
2 68043  53.1600  70.0475 0000426  83.7626 273.5564 15.96539399  2132
STARLINK-36966          
1 68044U 26041E   26067.16668981 -.01480695  65573-3 -33855-2 0  9991
2 68044  53.1599  70.0402 0000538  85.4024 275.4334 15.96795788  2137
